{"type": "FeatureCollection", "features": [ {"type": "Feature", "properties": {"norad_id": 37420, "name": "FENGYUN 1C DEB", "group": "fengyun-1c-debris", "lat": 52.25942082262885, "lon": -27.106077384715967, "alt_km": 937.8886688836428, "timestamp": "2025-12-20T18:51:32.003197+00:00", "meta": {"OBJECT_NAME": "FENGYUN 1C DEB", "OBJECT_ID": "1999-025EGN", "EPOCH": "2025-12-18T04:50:39.868512", "MEAN_MOTION": 13.9975666, "ECCENTRICITY": 0.00708052, "INCLINATION": 98.8647, "RA_OF_ASC_NODE": 342.0233, "ARG_OF_PERICENTER": 260.9204, "MEAN_ANOMALY": 98.3944, "EPHEMERIS_TYPE": 0, "CLASSIFICATION_TYPE": "U", "NORAD_CAT_ID": 37420, "ELEMENT_SET_NO": 999, "REV_AT_EPOCH": 59841, "BSTAR": 0.0004339645, "MEAN_MOTION_DOT": 6.06e-06, "MEAN_MOTION_DDOT": 0}, "tle": {"line1": "1 37420U 99025EGN 25352.20185033  .00000606  00000+0  43396-3 0  9999", "line2": "2 37420  98.8647 342.0233 0070805 260.9204  98.3944 13.99756660598416"}}, "geometry": {"type": "Point", "coordinates": [-27.106077384715967, 52.25942082262885]}}, {"type": "Feature", "properties": {"norad_id": 37421, "name": "FENGYUN 1C DEB", "group": "fengyun-1c-debris", "lat": 56.47911476555074, "lon": 142.23109570179926, "alt_km": 926.7431313453553, "timestamp": "2025-12-20T18:51:32.003207+00:00", "meta": {"OBJECT_NAME": "FENGYUN 1C DEB", "OBJECT_ID": "1999-025EGP", "EPOCH": "2025-12-17T07:53:38.656896", "MEAN_MOTION": 13.40536382, "ECCENTRICITY": 0.04092708, "INCLINATION": 98.888, "RA_OF_ASC_NODE": 305.5227, "ARG_OF_PERICENTER": 73.9716, "MEAN_ANOMALY": 290.6084, "EPHEMERIS_TYPE": 0, "CLASSIFICATION_TYPE": "U", "NORAD_CAT_ID": 37421, "ELEMENT_SET_NO": 999, "REV_AT_EPOCH": 61007, "BSTAR": 0.00075435568, "MEAN_MOTION_DOT": 6.43e-06, "MEAN_MOTION_DDOT": 0}, "tle": {"line1": "1 37421U 99025EGP 25351.32891964  .00000643  00000+0  75436-3 0  9990", "line2": "2 37421  98.8880 305.5227 0409270  73.9716 290.6084 13.40536382610077"}}, "geometry": {"type": "Point", "coordinates": [142.23109570179926, 56.47911476555074]}}, {"type": "Feature", "properties": {"norad_id": 37423, "name": "FENGYUN 1C DEB", "group": "fengyun-1c-debris", "lat": -53.693115947552535, "lon": 56.95667385364994, "alt_km": 909.6296656074173, "timestamp": "2025-12-20T18:51:32.003217+00:00", "meta": {"OBJECT_NAME": "FENGYUN 1C DEB", "OBJECT_ID": "1999-025EGR", "EPOCH": "2025-12-19T20:56:31.693920", "MEAN_MOTION": 14.07571536, "ECCENTRICITY": 0.0049402, "INCLINATION": 98.7853, "RA_OF_ASC_NODE": 43.9189, "ARG_OF_PERICENTER": 140.2024, "MEAN_ANOMALY": 220.2786, "EPHEMERIS_TYPE": 0, "CLASSIFICATION_TYPE": "U", "NORAD_CAT_ID": 37423, "ELEMENT_SET_NO": 999, "REV_AT_EPOCH": 63710, "BSTAR": 0.00067171, "MEAN_MOTION_DOT": 1.103e-05, "MEAN_MOTION_DDOT": 0}, "tle": {"line1": "1 37423U 99025EGR 25353.87258905  .00001103  00000+0  67171-3 0  9995", "line2": "2 37423  98.7853  43.9189 0049402 140.2024 220.2786 14.07571536637100"}}, "geometry": {"type": "Point", "coordinates": [56.95667385364994, -53.693115947552535]}}, {"type": "Feature", "properties": {"norad_id": 37424, "name": "FENGYUN 1C DEB", "group": "fengyun-1c-debris", "lat": 65.04740891873156, "lon": -42.46742362892937, "alt_km": 951.0380249876471, "timestamp": "2025-12-20T18:51:32.003227+00:00", "meta": {"OBJECT_NAME": "FENGYUN 1C DEB", "OBJECT_ID": "1999-025EGS", "EPOCH": "2025-12-18T03:38:23.573472", "MEAN_MOTION": 14.17877456, "ECCENTRICITY": 0.0214773, "INCLINATION": 97.1982, "RA_OF_ASC_NODE": 119.6335, "ARG_OF_PERICENTER": 266.2363, "MEAN_ANOMALY": 91.4237, "EPHEMERIS_TYPE": 0, "CLASSIFICATION_TYPE": "U", "NORAD_CAT_ID": 37424, "ELEMENT_SET_NO": 999, "REV_AT_EPOCH": 68650, "BSTAR": 0.00087369687, "MEAN_MOTION_DOT": 2.206e-05, "MEAN_MOTION_DDOT": 0}, "tle": {"line1": "1 37424U 99025EGS 25352.15166173  .00002206  00000+0  87370-3 0  9999", "line2": "2 37424  97.1982 119.6335 0214773 266.2363  91.4237 14.17877456686509"}}, "geometry": {"type": "Point", "coordinates": [-42.46742362892937, 65.04740891873156]}}, {"type": "Feature", "properties": {"norad_id": 37427, "name": "FENGYUN 1C DEB", "group": "fengyun-1c-debris", "lat": -39.27033593086413, "lon": 144.62701823187075, "alt_km": 491.94778604929525, "timestamp": "2025-12-20T18:51:32.003237+00:00", "meta": {"OBJECT_NAME": "FENGYUN 1C DEB", "OBJECT_ID": "1999-025EGV", "EPOCH": "2025-12-18T02:54:56.658240", "MEAN_MOTION": 14.9812711, "ECCENTRICITY": 0.0187852, "INCLINATION": 98.6206, "RA_OF_ASC_NODE": 134.5593, "ARG_OF_PERICENTER": 280.0724, "MEAN_ANOMALY": 77.9349, "EPHEMERIS_TYPE": 0, "CLASSIFICATION_TYPE": "U", "NORAD_CAT_ID": 37427, "ELEMENT_SET_NO": 999, "REV_AT_EPOCH": 60403, "BSTAR": 0.00035837255, "MEAN_MOTION_DOT": 6.036e-05, "MEAN_MOTION_DDOT": 0}, "tle": {"line1": "1 37427U 99025EGV 25352.12148910  .00006036  00000+0  35837-3 0  9994", "line2": "2 37427  98.6206 134.5593 0187852 280.0724  77.9349 14.98127110604036"}}, "geometry": {"type": "Point", "coordinates": [144.62701823187075, -39.27033593086413]}}, {"type": "Feature", "properties": {"norad_id": 37428, "name": "FENGYUN 1C DEB", "group": "fengyun-1c-debris", "lat": 58.3886805275738, "lon": 49.328720862944316, "alt_km": 742.0621604430735, "timestamp": "2025-12-20T18:51:32.003247+00:00", "meta": {"OBJECT_NAME": "FENGYUN 1C DEB", "OBJECT_ID": "1999-025EGW", "EPOCH": "2025-12-14T08:18:44.705664", "MEAN_MOTION": 14.34657068, "ECCENTRICITY": 0.0056813, "INCLINATION": 97.722, "RA_OF_ASC_NODE": 210.8336, "ARG_OF_PERICENTER": 94.0763, "MEAN_ANOMALY": 266.6921, "EPHEMERIS_TYPE": 0, "CLASSIFICATION_TYPE": "U", "NORAD_CAT_ID": 37428, "ELEMENT_SET_NO": 999, "REV_AT_EPOCH": 63459, "BSTAR": 0.0018586443, "MEAN_MOTION_DOT": 5.32e-05, "MEAN_MOTION_DDOT": 0}, "tle": {"line1": "1 37428U 99025EGW 25348.34635076  .00005320  00000+0  18586-2 0  9994", "line2": "2 37428  97.7220 210.8336 0056813  94.0763 266.6921 14.34657068634591"}}, "geometry": {"type": "Point", "coordinates": [49.328720862944316, 58.3886805275738]}}, {"type": "Feature", "properties": {"norad_id": 37430, "name": "FENGYUN 1C DEB", "group": "fengyun-1c-debris", "lat": 31.245925949844573, "lon": 63.56155870632545, "alt_km": 779.8364244231216, "timestamp": "2025-12-20T18:51:32.003257+00:00", "meta": {"OBJECT_NAME": "FENGYUN 1C DEB", "OBJECT_ID": "1999-025EGY", "EPOCH": "2025-12-05T03:58:16.719456", "MEAN_MOTION": 14.28846273, "ECCENTRICITY": 0.001883, "INCLINATION": 98.7668, "RA_OF_ASC_NODE": 53.2332, "ARG_OF_PERICENTER": 93.5332, "MEAN_ANOMALY": 266.8003, "EPHEMERIS_TYPE": 0, "CLASSIFICATION_TYPE": "U", "NORAD_CAT_ID": 37430, "ELEMENT_SET_NO": 999, "REV_AT_EPOCH": 61593, "BSTAR": 0.0038447795, "MEAN_MOTION_DOT": 9.683e-05, "MEAN_MOTION_DDOT": 0}, "tle": {"line1": "1 37430U 99025EGY 25339.16547129  .00009683  00000+0  38448-2 0  9993", "line2": "2 37430  98.7668  53.2332 0018830  93.5332 266.8003 14.28846273615930"}}, "geometry": {"type": "Point", "coordinates": [63.56155870632545, 31.245925949844573]}}, {"type": "Feature", "properties": {"norad_id": 37432, "name": "FENGYUN 1C DEB", "group": "fengyun-1c-debris", "lat": 81.73267419044991, "lon": -90.09646887069214, "alt_km": 834.499464944186, "timestamp": "2025-12-20T18:51:32.003267+00:00", "meta": {"OBJECT_NAME": "FENGYUN 1C DEB", "OBJECT_ID": "1999-025EHA", "EPOCH": "2025-12-18T06:57:07.635744", "MEAN_MOTION": 14.53484478, "ECCENTRICITY": 0.01820098, "INCLINATION": 98.1832, "RA_OF_ASC_NODE": 5.4367, "ARG_OF_PERICENTER": 270.6812, "MEAN_ANOMALY": 87.3534, "EPHEMERIS_TYPE": 0, "CLASSIFICATION_TYPE": "U", "NORAD_CAT_ID": 37432, "ELEMENT_SET_NO": 999, "REV_AT_EPOCH": 8457, "BSTAR": 0.00071615853, "MEAN_MOTION_DOT": 3.664e-05, "MEAN_MOTION_DDOT": 0}, "tle": {"line1": "1 37432U 99025EHA 25352.28967171  .00003664  00000+0  71616-3 0  9994", "line2": "2 37432  98.1832   5.4367 0182009 270.6812  87.3534 14.53484478 84575"}}, "geometry": {"type": "Point", "coordinates": [-90.09646887069214, 81.73267419044991]}}, {"type": "Feature", "properties": {"norad_id": 37435, "name": "FENGYUN 1C DEB", "group": "fengyun-1c-debris", "lat": -7.086410841181612, "lon": -150.14034739368918, "alt_km": 848.825614249411, "timestamp": "2025-12-20T18:51:32.003276+00:00", "meta": {"OBJECT_NAME": "FENGYUN 1C DEB", "OBJECT_ID": "1999-025EHD", "EPOCH": "2025-12-13T08:42:56.940192", "MEAN_MOTION": 14.22368341, "ECCENTRICITY": 0.00403043, "INCLINATION": 98.6487, "RA_OF_ASC_NODE": 23.6617, "ARG_OF_PERICENTER": 12.4728, "MEAN_ANOMALY": 347.7438, "EPHEMERIS_TYPE": 0, "CLASSIFICATION_TYPE": "U", "NORAD_CAT_ID": 37435, "ELEMENT_SET_NO": 999, "REV_AT_EPOCH": 88948, "BSTAR": 0.0015840008, "MEAN_MOTION_DOT": 3.512e-05, "MEAN_MOTION_DDOT": 0}, "tle": {"line1": "1 37435U 99025EHD 25347.36315903  .00003512  00000+0  15840-2 0  9998", "line2": "2 37435  98.6487  23.6617 0040304  12.4728 347.7438 14.22368341889483"}}, "geometry": {"type": "Point", "coordinates": [-150.14034739368918, -7.086410841181612]}}, {"type": "Feature", "properties": {"norad_id": 37436, "name": "FENGYUN 1C DEB", "group": "fengyun-1c-debris", "lat": 9.030771250805675, "lon": -129.3927304992556, "alt_km": 842.8377011513185, "timestamp": "2025-12-20T18:51:32.003286+00:00", "meta": {"OBJECT_NAME": "FENGYUN 1C DEB", "OBJECT_ID": "1999-025EHE", "EPOCH": "2025-12-08T08:57:07.720992", "MEAN_MOTION": 14.06336267, "ECCENTRICITY": 0.00596162, "INCLINATION": 98.9375, "RA_OF_ASC_NODE": 36.9205, "ARG_OF_PERICENTER": 160.2305, "MEAN_ANOMALY": 200.1192, "EPHEMERIS_TYPE": 0, "CLASSIFICATION_TYPE": "U", "NORAD_CAT_ID": 37436, "ELEMENT_SET_NO": 999, "REV_AT_EPOCH": 63937, "BSTAR": 0.0011550832, "MEAN_MOTION_DOT": 1.893e-05, "MEAN_MOTION_DDOT": 0}, "tle": {"line1": "1 37436U 99025EHE 25342.37300603  .00001893  00000+0  11551-2 0  9991", "line2": "2 37436  98.9375  36.9205 0059616 160.2305 200.1192 14.06336267639376"}}, "geometry": {"type": "Point", "coordinates": [-129.3927304992556, 9.030771250805675]}}]}